ONEWEB-0379             
1 49305U 21090AC  24240.23842179 -.00000040  00000+0 -14167-3 0  9998
2 49305  87.8925  60.7617 0001609  87.3550 272.7763 13.14504072140997
ONEWEB-0380             
1 49306U 21090AD  24240.26137909  .00000106  00000+0  23339-3 0  9992
2 49306  87.9092  76.0571 0001760  87.5865 272.5469 13.19723948139519
ONEWEB-0381             
1 49307U 21090AE  24240.37727222  .00000002  00000+0 -27562-4 0  9997
2 49307  87.9199  45.4837 0001912  91.4215 268.7137 13.20773255142864
ONEWEB-0382             
1 49308U 21090AF  24240.44041074 -.00000008  00000+0 -52622-4 0  9992
2 49308  87.9200  45.4676 0001776  76.9801 283.1530 13.20769128142868
ONEWEB-0383             
1 49309U 21090AG  24240.23207573 -.00000175  00000+0 -50635-3 0  9994
2 49309  87.8920  60.7499 0001612  81.5020 278.6292 13.14500824141024
ONEWEB-0384             
1 49310U 21090AH  24240.43725418  .00000047  00000+0  82925-4 0  9995
2 49310  87.9202  45.4807 0001808  74.6880 285.4453 13.20769484142872
ONEWEB-0385             
1 49311U 21090AJ  24240.43251144  .00000057  00000+0  10832-3 0  9994
2 49311  87.9202  45.4828 0001898  79.7561 280.3786 13.20772076142848
